[{"OBJECT_NAME":"OBJECT A","OBJECT_ID":"2023-189A","EPOCH":"2026-03-09T22:59:06.381600","MEAN_MOTION":15.32403275,"ECCENTRICITY":0.00094831,"INCLINATION":97.4458,"RA_OF_ASC_NODE":86.5997,"ARG_OF_PERICENTER":249.5377,"MEAN_ANOMALY":110.4847,"EPHEMERIS_TYPE":0,"CLASSIFICATION_TYPE":"U","NORAD_CAT_ID":58502,"ELEMENT_SET_NO":999,"REV_AT_EPOCH":12601,"BSTAR":0.00019874471,"MEAN_MOTION_DOT":6.146e-5,"MEAN_MOTION_DDOT":0},{"OBJECT_NAME":"STARLINK-31643","OBJECT_ID":"2024-062Q","EPOCH":"2026-03-09T21:57:01.989504","MEAN_MOTION":15.30192367,"ECCENTRICITY":0.00012803,"INCLINATION":53.1592,"RA_OF_ASC_NODE":254.7707,"ARG_OF_PERICENTER":112.2795,"MEAN_ANOMALY":247.8342,"EPHEMERIS_TYPE":0,"CLASSIFICATION_TYPE":"U","NORAD_CAT_ID":59388,"ELEMENT_SET_NO":999,"REV_AT_EPOCH":10970,"BSTAR":3.037579e-6,"MEAN_MOTION_DOT":-2.69e-6,"MEAN_MOTION_DDOT":0}]
